0 PLEM COVER
1 27611U 02058G   13280.81659419  .00004137  00000-0  42851-3 0  1887
2 27611 064.5512 044.5102 0017657 311.0524 048.9059 14.91261300585167
0 PLEM COVER
1 27611U 02058G   13282.49310776  .00006979  00000-0  71113-3 0  1893
2 27611 064.5513 039.2572 0017762 310.8894 049.0676 14.91286773585410
0 PLEM COVER
1 27611U 02058G   13283.49900143  .00006910  00000-0  70409-3 0  1901
2 27611 064.5511 036.1044 0017882 310.8791 049.0769 14.91297344585562
0 PLEM COVER
1 27611U 02058G   13283.63313490  .00010357  00000-0  10316-2 0  1911
2 27611 064.5506 035.6861 0017501 310.2762 049.7316 14.91287322585589
0 PLEM COVER
1 27611U 02058G   13285.84605759  .00005373  00000-0  55077-3 0  1925
2 27611 064.5514 028.7473 0018112 311.2699 048.6850 14.91320789585912
0 PLEM COVER
1 27611U 02058G   13286.85192673  .00005492  00000-0  56247-3 0  1936
2 27611 064.5516 025.5945 0018217 311.2410 048.7130 14.91330365586060
0 PLEM COVER
1 27611U 02058G   13287.85778872  .00007801  00000-0  79169-3 0  1943
2 27611 064.5519 022.4417 0018292 311.2423 048.7111 14.91343323586214
0 PLEM COVER
1 27611U 02058G   13289.19892190  .00008029  00000-0  81389-3 0  1953
2 27611 064.5522 018.2383 0018419 311.4116 048.5411 14.91365670586417
0 PLEM COVER
1 27611U 02058G   13290.47298293  .00007951  00000-0  80581-3 0  1967
2 27611 064.5522 014.2452 0018592 311.5470 048.4045 14.91379698586604
0 PLEM COVER
1 27611U 02058G   13291.47881091  .00006813  00000-0  69265-3 0  1975
2 27611 064.5518 011.0925 0018712 311.3831 048.5670 14.91391961586750
0 PLEM COVER
1 27611U 02058G   13292.75284772  .00006852  00000-0  69620-3 0  1989
2 27611 064.5516 007.0987 0018825 311.6042 048.3454 14.91409180586945
0 PLEM COVER
1 27611U 02058G   13293.75865665  .00006931  00000-0  70382-3 0  1992
2 27611 064.5514 003.9456 0018994 311.6483 048.3000 14.91418920587091
0 PLEM COVER
1 27611U 02058G   13294.76445823  .00008147  00000-0  82409-3 0  2001
2 27611 064.5512 000.7925 0019032 311.7370 048.2112 14.91431211587243
